STARLINK-1039           
1 44744U 19074AH  26068.61544358  .00063546  00000+0  27625-2 0  9999
2 44744  53.0506 215.4382 0003180 172.5659 187.5385 15.21697508348349
YAOGAN-43 02C           
1 60947U 24156C   26068.54059120  .00009954  00000+0  41433-3 0  9996
2 60947  34.9976 104.8158 0003901 208.5676 151.4825 15.22982353 84244
